start=new Date('2022-03-23T00:00:00.000Z').valueOf();
sats=[{"EPOCH":"2022-03-22T20:07:27.289920","CENTER_NAME":"EARTH","PERIAPSIS":"545.990","LAUNCH_DATE":"2020-01-29","BSTAR":"0.00019007000000","NORAD_CAT_ID":"45072","TIME_SYSTEM":"UTC","RCS_SIZE":"LARGE","PERIOD":"95.593","SEMIMAJOR_AXIS":"6925.404","INCLINATION":"53.0555","ELEMENT_SET_NO":"999","OBJECT_NAME":"STARLINK-1168","ECCENTRICITY":"0.00018460","FILE":"3370190","MEAN_MOTION":"15.06382054","TLE_LINE2":"2 45072  53.0555 286.2733 0001846  64.9433 295.1748 15.06382054118518","RA_OF_ASC_NODE":"286.2733","COUNTRY_CODE":"US","EPHEMERIS_TYPE":"0","MEAN_ELEMENT_THEORY":"SGP4","OBJECT_TYPE":"PAYLOAD","MEAN_ANOMALY":"295.1748","MEAN_MOTION_DDOT":"0.0000000000000","TLE_LINE1":"1 45072U 20006AE  22081.83851030  .00002549  00000-0  19007-3 0  9997","CLASSIFICATION_TYPE":"U","APOAPSIS":"548.547","REV_AT_EPOCH":"11851","REF_FRAME":"TEME","OBJECT_ID":"2020-006AE","ARG_OF_PERICENTER":"64.9433","MEAN_MOTION_DOT":"0.00002549","DECAY_DATE":null,"GP_ID":"199425491","SITE":"AFETR"},{"REF_FRAME":"TEME","REV_AT_EPOCH":"11851","ARG_OF_PERICENTER":"58.8885","MEAN_MOTION_DOT":"-0.00001743","OBJECT_ID":"2020-006AF","DECAY_DATE":null,"GP_ID":"199426241","SITE":"AFETR","COUNTRY_CODE":"US","EPHEMERIS_TYPE":"0","MEAN_ELEMENT_THEORY":"SGP4","OBJECT_TYPE":"PAYLOAD","TLE_LINE1":"1 45073U 20006AF  22081.86430891 -.00001743  00000-0 -98169-4 0  9993","CLASSIFICATION_TYPE":"U","MEAN_MOTION_DDOT":"0.0000000000000","MEAN_ANOMALY":"301.2272","APOAPSIS":"548.415","PERIOD":"95.592","ELEMENT_SET_NO":"999","INCLINATION":"53.0534","SEMIMAJOR_AXIS":"6925.364","OBJECT_NAME":"STARLINK-1170","ECCENTRICITY":"0.00017130","MEAN_MOTION":"15.06395063","FILE":"3370190","RA_OF_ASC_NODE":"286.1500","TLE_LINE2":"2 45073  53.0534 286.1500 0001713  58.8885 301.2272 15.06395063118518","CENTER_NAME":"EARTH","EPOCH":"2022-03-22T20:44:36.289824","PERIAPSIS":"546.042","BSTAR":"-0.00009816900000","LAUNCH_DATE":"2020-01-29","NORAD_CAT_ID":"45073","TIME_SYSTEM":"UTC","RCS_SIZE":"LARGE"},{"RA_OF_ASC_NODE":"286.2374","TLE_LINE2":"2 45074  53.0531 286.2374 0001581  76.2207 283.8958 15.06395709118514","MEAN_MOTION":"15.06395709","FILE":"3370190","OBJECT_NAME":"STARLINK-1172","ECCENTRICITY":"0.00015810","ELEMENT_SET_NO":"999","INCLINATION":"53.0531","SEMIMAJOR_AXIS":"6925.362","PERIOD":"95.592","RCS_SIZE":"LARGE","TIME_SYSTEM":"UTC","NORAD_CAT_ID":"45074","BSTAR":"-0.00005476200000","LAUNCH_DATE":"2020-01-29","PERIAPSIS":"546.132","CENTER_NAME":"EARTH","EPOCH":"2022-03-22T20:23:22.771104","SITE":"AFETR","GP_ID":"199426990","DECAY_DATE":null,"ARG_OF_PERICENTER":"76.2207","MEAN_MOTION_DOT":"-0.00001097","OBJECT_ID":"2020-006AG","REV_AT_EPOCH":"11851","REF_FRAME":"TEME","APOAPSIS":"548.322","TLE_LINE1":"1 45074U 20006AG  22081.84956911 -.00001097  00000-0 -54762-4 0  9991","CLASSIFICATION_TYPE":"U","MEAN_MOTION_DDOT":"0.0000000000000","MEAN_ANOMALY":"283.8958","OBJECT_TYPE":"PAYLOAD","MEAN_ELEMENT_THEORY":"SGP4","EPHEMERIS_TYPE":"0","COUNTRY_CODE":"US"},{"MEAN_MOTION":"15.06395390","FILE":"3370190","RA_OF_ASC_NODE":"286.0764","TLE_LINE2":"2 45075  53.0535 286.0764 0001505  71.6072 288.5081 15.06395390118521","OBJECT_NAME":"STARLINK-1174","ECCENTRICITY":"0.00015050","PERIOD":"95.592","ELEMENT_SET_NO":"999","INCLINATION":"53.0535","SEMIMAJOR_AXIS":"6925.363","NORAD_CAT_ID":"45075","TIME_SYSTEM":"UTC","RCS_SIZE":"LARGE","BSTAR":"0.00007256300000","LAUNCH_DATE":"2020-01-29","CENTER_NAME":"EARTH","EPOCH":"2022-03-22T21:11:09.366720","PERIAPSIS":"546.185","GP_ID":"199426740","SITE":"AFETR","DECAY_DATE":null,"ARG_OF_PERICENTER":"71.6072","MEAN_MOTION_DOT":"0.00000799","OBJECT_ID":"2020-006AH","REF_FRAME":"TEME","REV_AT_EPOCH":"11852","CLASSIFICATION_TYPE":"U","TLE_LINE1":"1 45075U 20006AH  22081.88274730  .00000799  00000-0  72563-4 0  9993","MEAN_MOTION_DDOT":"0.0000000000000","MEAN_ANOMALY":"288.5081","APOAPSIS":"548.270","OBJECT_TYPE":"PAYLOAD","MEAN_ELEMENT_THEORY":"SGP4","COUNTRY_CODE":"US","EPHEMERIS_TYPE":"0"},{"MEAN_MOTION_DOT":"-0.00000794","ARG_OF_PERICENTER":"75.8084","OBJECT_ID":"2020-006AJ","REF_FRAME":"TEME","REV_AT_EPOCH":"11851","SITE":"AFETR","GP_ID":"199425992","DECAY_DATE":null,"MEAN_ELEMENT_THEORY":"SGP4","EPHEMERIS_TYPE":"0","COUNTRY_CODE":"US","APOAPSIS":"548.283","CLASSIFICATION_TYPE":"U","TLE_LINE1":"1 45076U 20006AJ  22081.82376825 -.00000794  00000-0 -34411-4 0  9993","MEAN_ANOMALY":"284.3074","MEAN_MOTION_DDOT":"0.0000000000000","OBJECT_TYPE":"PAYLOAD","ECCENTRICITY":"0.00015220","OBJECT_NAME":"STARLINK-1180","INCLINATION":"53.0546","ELEMENT_SET_NO":"999","SEMIMAJOR_AXIS":"6925.364","PERIOD":"95.592","RA_OF_ASC_NODE":"286.3400","TLE_LINE2":"2 45076  53.0546 286.3400 0001522  75.8084 284.3074 15.06394905118518","MEAN_MOTION":"15.06394905","FILE":"3370190","PERIAPSIS":"546.175","CENTER_NAME":"EARTH","EPOCH":"2022-03-22T19:46:13.576800","RCS_SIZE":"LARGE","TIME_SYSTEM":"UTC","NORAD_CAT_ID":"45076","BSTAR":"-0.00003441100000","LAUNCH_DATE":"2020-01-29"},{"MEAN_ELEMENT_THEORY":"SGP4","EPHEMERIS_TYPE":"0","COUNTRY_CODE":"US","APOAPSIS":"305.156","MEAN_MOTION_DDOT":"0.0000122490000","MEAN_ANOMALY":"86.4391","CLASSIFICATION_TYPE":"U","TLE_LINE1":"1 45077U 20006AK  22081.49784930 -.00062904  12249-4 -18438-3 0  9990","OBJECT_TYPE":"PAYLOAD","OBJECT_ID":"2020-006AK","ARG_OF_PERICENTER":"273.5716","MEAN_MOTION_DOT":"-0.00062904","REF_FRAME":"TEME","REV_AT_EPOCH":"11958","SITE":"AFETR","GP_ID":"199393473","DECAY_DATE":null,"PERIAPSIS":"294.426","EPOCH":"2022-03-22T11:56:54.179520","CENTER_NAME":"EARTH","RCS_SIZE":"LARGE","TIME_SYSTEM":"UTC","NORAD_CAT_ID":"45077","LAUNCH_DATE":"2020-01-29","BSTAR":"-0.00018438000000","ECCENTRICITY":"0.00080340","OBJECT_NAME":"STARLINK-1182","SEMIMAJOR_AXIS":"6677.926","ELEMENT_SET_NO":"999","INCLINATION":"53.0502","PERIOD":"90.515","TLE_LINE2":"2 45077  53.0502 207.9939 0008034 273.5716  86.4391 15.90890738119580","RA_OF_ASC_NODE":"207.9939","FILE":"3369829","MEAN_MOTION":"15.90890738"},{"RA_OF_ASC_NODE":"286.2703","TLE_LINE2":"2 45078  53.0531 286.2703 0001524  83.7080 276.4083 15.06395643118506","MEAN_MOTION":"15.06395643","FILE":"3370190","INCLINATION":"53.0531","ELEMENT_SET_NO":"999","SEMIMAJOR_AXIS":"6925.362","PERIOD":"95.592","ECCENTRICITY":"0.00015240","OBJECT_NAME":"STARLINK-1177","BSTAR":"-0.00004145300000","LAUNCH_DATE":"2020-01-29","TIME_SYSTEM":"UTC","RCS_SIZE":"LARGE","NORAD_CAT_ID":"45078","PERIAPSIS":"546.171","CENTER_NAME":"EARTH","EPOCH":"2022-03-22T20:12:45.704160","DECAY_DATE":null,"SITE":"AFETR","GP_ID":"199426490","REF_FRAME":"TEME","REV_AT_EPOCH":"11850","MEAN_MOTION_DOT":"-0.00000899","ARG_OF_PERICENTER":"83.7080","OBJECT_ID":"2020-006AL","OBJECT_TYPE":"PAYLOAD","APOAPSIS":"548.282","TLE_LINE1":"1 45078U 20006AL  22081.84219565 -.00000899  00000-0 -41453-4 0  9994","CLASSIFICATION_TYPE":"U","MEAN_MOTION_DDOT":"0.0000000000000","MEAN_ANOMALY":"276.4083","EPHEMERIS_TYPE":"0","COUNTRY_CODE":"US","MEAN_ELEMENT_THEORY":"SGP4"},{"TIME_SYSTEM":"UTC","RCS_SIZE":"LARGE","NORAD_CAT_ID":"45079","LAUNCH_DATE":"2020-01-29","BSTAR":"0.00005929800000","PERIAPSIS":"546.207","EPOCH":"2022-03-22T21:16:27.041376","CENTER_NAME":"EARTH","TLE_LINE2":"2 45079  53.0529 286.0532 0001456  79.8012 280.3141 15.06399478118517","RA_OF_ASC_NODE":"286.0532","FILE":"3370190","MEAN_MOTION":"15.06399478","OBJECT_NAME":"STARLINK-1149","ECCENTRICITY":"0.00014560","SEMIMAJOR_AXIS":"6925.350","INCLINATION":"53.0529","ELEMENT_SET_NO":"999","PERIOD":"95.592","APOAPSIS":"548.223","MEAN_MOTION_DDOT":"0.0000000000000","MEAN_ANOMALY":"280.3141","CLASSIFICATION_TYPE":"U","TLE_LINE1":"1 45079U 20006AM  22081.88642409  .00000602  00000-0  59298-4 0  9992","OBJECT_TYPE":"PAYLOAD","MEAN_ELEMENT_THEORY":"SGP4","EPHEMERIS_TYPE":"0","COUNTRY_CODE":"US","SITE":"AFETR","GP_ID":"199427241","DECAY_DATE":null,"OBJECT_ID":"2020-006AM","MEAN_MOTION_DOT":"0.00000602","ARG_OF_PERICENTER":"79.8012","REF_FRAME":"TEME","REV_AT_EPOCH":"11851"},{"PERIOD":"95.592","SEMIMAJOR_AXIS":"6925.322","INCLINATION":"53.0534","ELEMENT_SET_NO":"999","ECCENTRICITY":"0.00016610","OBJECT_NAME":"STARLINK-1153","FILE":"3370190","MEAN_MOTION":"15.06408675","TLE_LINE2":"2 45080  53.0534 286.3217 0001661  60.6626 299.4529 15.06408675118516","RA_OF_ASC_NODE":"286.3217","EPOCH":"2022-03-22T19:51:31.153824","CENTER_NAME":"EARTH","PERIAPSIS":"546.037","LAUNCH_DATE":"2020-01-29","BSTAR":"0.00017902000000","NORAD_CAT_ID":"45080","RCS_SIZE":"LARGE","TIME_SYSTEM":"UTC","REF_FRAME":"TEME","REV_AT_EPOCH":"11851","OBJECT_ID":"2020-006AN","ARG_OF_PERICENTER":"60.6626","MEAN_MOTION_DOT":"0.00002387","DECAY_DATE":null,"GP_ID":"199425492","SITE":"AFETR","COUNTRY_CODE":"US","EPHEMERIS_TYPE":"0","MEAN_ELEMENT_THEORY":"SGP4","OBJECT_TYPE":"PAYLOAD","MEAN_ANOMALY":"299.4529","MEAN_MOTION_DDOT":"0.0000000000000","CLASSIFICATION_TYPE":"U","TLE_LINE1":"1 45080U 20006AN  22081.82744391  .00002387  00000-0  17902-3 0  9998","APOAPSIS":"548.337"},{"EPOCH":"2022-03-22T20:55:13.491552","CENTER_NAME":"EARTH","PERIAPSIS":"546.144","LAUNCH_DATE":"2020-01-29","BSTAR":"-0.00003027500000","NORAD_CAT_ID":"45081","RCS_SIZE":"LARGE","TIME_SYSTEM":"UTC","PERIOD":"95.592","SEMIMAJOR_AXIS":"6925.364","INCLINATION":"53.0533","ELEMENT_SET_NO":"999","OBJECT_NAME":"STARLINK-1151","ECCENTRICITY":"0.00015660","FILE":"3370190","MEAN_MOTION":"15.06395084","TLE_LINE2":"2 45081  53.0533 286.1390 0001566  71.9357 288.1802 15.06395084118525","RA_OF_ASC_NODE":"286.1390","COUNTRY_CODE":"US","EPHEMERIS_TYPE":"0","MEAN_ELEMENT_THEORY":"SGP4","OBJECT_TYPE":"PAYLOAD","MEAN_MOTION_DDOT":"0.0000000000000","MEAN_ANOMALY":"288.1802","TLE_LINE1":"1 45081U 20006AP  22081.87168393 -.00000732  00000-0 -30275-4 0  9999","CLASSIFICATION_TYPE":"U","APOAPSIS":"548.313","REV_AT_EPOCH":"11852","REF_FRAME":"TEME","OBJECT_ID":"2020-006AP","ARG_OF_PERICENTER":"71.9357","MEAN_MOTION_DOT":"-0.00000732","DECAY_DATE":null,"GP_ID":"199426242","SITE":"AFETR"}];
